{
  "type": "FeatureCollection",
  "features": [
    {
      "type": "Feature",
      "properties": {
        "norad_id": 66577,
        "name": "STARLINK-35815",
        "group": "last-30-days",
        "lat": -36.00166584265457,
        "lon": 60.64907378876996,
        "alt_km": 415.7222655022424,
        "timestamp": "2025-12-14T07:33:18.186888+00:00",
        "meta_object_name": "STARLINK-35815",
        "meta_object_id": "2025-268W",
        "meta_epoch": "2025-12-13T08:37:30.693792",
        "meta_mean_motion": 15.50647951,
        "meta_eccentricity": 0.00017844,
        "meta_inclination": 42.9992,
        "meta_ra_of_asc_node": 117.4785,
        "meta_arg_of_pericenter": 281.3238,
        "meta_mean_anomaly": 78.7422,
        "meta_ephemeris_type": 0,
        "meta_classification_type": "U",
        "meta_norad_cat_id": 66577,
        "meta_element_set_no": 999,
        "meta_rev_at_epoch": 472,
        "meta_bstar": 0.0030530138,
        "meta_mean_motion_dot": 0.00183476,
        "meta_mean_motion_ddot": 0,
        "tle_line1": "1 66577U 25268W   25347.35938303  .00183476  00000+0  30530-2 0  9990",
        "tle_line2": "2 66577  42.9992 117.4785 0001784 281.3238  78.7422 15.50647951  4724"
      },
      "geometry": {
        "type": "Point",
        "coordinates": [
          60.64907378876996,
          -36.00166584265457
        ]
      }
    },
    {
      "type": "Feature",
      "properties": {
        "norad_id": 66578,
        "name": "STARLINK-35743",
        "group": "last-30-days",
        "lat": -35.12558669934441,
        "lon": 62.86154930687213,
        "alt_km": 416.33451230265746,
        "timestamp": "2025-12-14T07:33:18.186900+00:00",
        "meta_object_name": "STARLINK-35743",
        "meta_object_id": "2025-268X",
        "meta_epoch": "2025-12-13T07:04:15.971520",
        "meta_mean_motion": 15.5064567,
        "meta_eccentricity": 8.455e-05,
        "meta_inclination": 42.9995,
        "meta_ra_of_asc_node": 117.8528,
        "meta_arg_of_pericenter": 255.7967,
        "meta_mean_anomaly": 104.2799,
        "meta_ephemeris_type": 0,
        "meta_classification_type": "U",
        "meta_norad_cat_id": 66578,
        "meta_element_set_no": 999,
        "meta_rev_at_epoch": 471,
        "meta_bstar": 0.0031012837,
        "meta_mean_motion_dot": 0.00186438,
        "meta_mean_motion_ddot": 0,
        "tle_line1": "1 66578U 25268X   25347.29462930  .00186438  00000+0  31013-2 0  9990",
        "tle_line2": "2 66578  42.9995 117.8528 0000845 255.7967 104.2799 15.50645670  4715"
      },
      "geometry": {
        "type": "Point",
        "coordinates": [
          62.86154930687213,
          -35.12558669934441
        ]
      }
    },
    {
      "type": "Feature",
      "properties": {
        "norad_id": 66579,
        "name": "STARLINK-35868",
        "group": "last-30-days",
        "lat": -34.34905922855169,
        "lon": 64.70410470450041,
        "alt_km": 415.8501775981658,
        "timestamp": "2025-12-14T07:33:18.186910+00:00",
        "meta_object_name": "STARLINK-35868",
        "meta_object_id": "2025-268Y",
        "meta_epoch": "2025-12-13T08:36:31.494240",
        "meta_mean_motion": 15.50624662,
        "meta_eccentricity": 0.0002169,
        "meta_inclination": 42.9994,
        "meta_ra_of_asc_node": 117.4724,
        "meta_arg_of_pericenter": 255.5177,
        "meta_mean_anomaly": 104.5442,
        "meta_ephemeris_type": 0,
        "meta_classification_type": "U",
        "meta_norad_cat_id": 66579,
        "meta_element_set_no": 999,
        "meta_rev_at_epoch": 472,
        "meta_bstar": 0.0028390677,
        "meta_mean_motion_dot": 0.00170163,
        "meta_mean_motion_ddot": 0,
        "tle_line1": "1 66579U 25268Y   25347.35869785  .00170163  00000+0  28391-2 0  9990",
        "tle_line2": "2 66579  42.9994 117.4724 0002169 255.5177 104.5442 15.50624662  4728"
      },
      "geometry": {
        "type": "Point",
        "coordinates": [
          64.70410470450041,
          -34.34905922855169
        ]
      }
    },
    {
      "type": "Feature",
      "properties": {
        "norad_id": 66580,
        "name": "STARLINK-35872",
        "group": "last-30-days",
        "lat": -33.44129784669039,
        "lon": 66.74282253058242,
        "alt_km": 416.04001336457804,
        "timestamp": "2025-12-14T07:33:18.186923+00:00",
        "meta_object_name": "STARLINK-35872",
        "meta_object_id": "2025-268Z",
        "meta_epoch": "2025-12-13T08:36:01.969632",
        "meta_mean_motion": 15.50629346,
        "meta_eccentricity": 0.00015397,
        "meta_inclination": 42.9998,
        "meta_ra_of_asc_node": 117.4711,
        "meta_arg_of_pericenter": 263.313,
        "meta_mean_anomaly": 96.7555,
        "meta_ephemeris_type": 0,
        "meta_classification_type": "U",
        "meta_norad_cat_id": 66580,
        "meta_element_set_no": 999,
        "meta_rev_at_epoch": 472,
        "meta_bstar": 0.0028304578,
        "meta_mean_motion_dot": 0.0016966,
        "meta_mean_motion_ddot": 0,
        "tle_line1": "1 66580U 25268Z   25347.35835613  .00169660  00000+0  28305-2 0  9990",
        "tle_line2": "2 66580  42.9998 117.4711 0001539 263.3130  96.7555 15.50629346  4727"
      },
      "geometry": {
        "type": "Point",
        "coordinates": [
          66.74282253058242,
          -33.44129784669039
        ]
      }
    },
    {
      "type": "Feature",
      "properties": {
        "norad_id": 66581,
        "name": "STARLINK-35744",
        "group": "last-30-days",
        "lat": -32.599761902152714,
        "lon": 68.53133347744293,
        "alt_km": 416.03176750011335,
        "timestamp": "2025-12-14T07:33:18.186934+00:00",
        "meta_object_name": "STARLINK-35744",
        "meta_object_id": "2025-268AA",
        "meta_epoch": "2025-12-13T08:35:32.306784",
        "meta_mean_motion": 15.50615828,
        "meta_eccentricity": 0.00017901,
        "meta_inclination": 43.0005,
        "meta_ra_of_asc_node": 117.4668,
        "meta_arg_of_pericenter": 274.3514,
        "meta_mean_anomaly": 85.7141,
        "meta_ephemeris_type": 0,
        "meta_classification_type": "U",
        "meta_norad_cat_id": 66581,
        "meta_element_set_no": 999,
        "meta_rev_at_epoch": 472,
        "meta_bstar": 0.0021025305,
        "meta_mean_motion_dot": 0.0012516,
        "meta_mean_motion_ddot": 0,
        "tle_line1": "1 66581U 25268AA  25347.35801281  .00125160  00000+0  21025-2 0  9994",
        "tle_line2": "2 66581  43.0005 117.4668 0001790 274.3514  85.7141 15.50615828  4726"
      },
      "geometry": {
        "type": "Point",
        "coordinates": [
          68.53133347744293,
          -32.599761902152714
        ]
      }
    },
    {
      "type": "Feature",
      "properties": {
        "norad_id": 66582,
        "name": "STARLINK-35746",
        "group": "last-30-days",
        "lat": -31.788657731482232,
        "lon": 70.1761609978613,
        "alt_km": 416.14851650062155,
        "timestamp": "2025-12-14T07:33:18.186944+00:00",
        "meta_object_name": "STARLINK-35746",
        "meta_object_id": "2025-268AB",
        "meta_epoch": "2025-12-13T16:18:49.811616",
        "meta_mean_motion": 15.50621163,
        "meta_eccentricity": 0.00026374,
        "meta_inclination": 42.9999,
        "meta_ra_of_asc_node": 115.5807,
        "meta_arg_of_pericenter": 259.4365,
        "meta_mean_anomaly": 100.6198,
        "meta_ephemeris_type": 0,
        "meta_classification_type": "U",
        "meta_norad_cat_id": 66582,
        "meta_element_set_no": 999,
        "meta_rev_at_epoch": 477,
        "meta_bstar": 0.0015195994,
        "meta_mean_motion_dot": 0.00089978,
        "meta_mean_motion_ddot": 0,
        "tle_line1": "1 66582U 25268AB  25347.67974319  .00089978  00000+0  15196-2 0  9991",
        "tle_line2": "2 66582  42.9999 115.5807 0002637 259.4365 100.6198 15.50621163  4773"
      },
      "geometry": {
        "type": "Point",
        "coordinates": [
          70.1761609978613,
          -31.788657731482232
        ]
      }
    },
    {
      "type": "Feature",
      "properties": {
        "norad_id": 66583,
        "name": "STARLINK-35941",
        "group": "last-30-days",
        "lat": -30.3187233136656,
        "lon": 72.98724994751215,
        "alt_km": 415.65320520546265,
        "timestamp": "2025-12-14T07:33:18.186954+00:00",
        "meta_object_name": "STARLINK-35941",
        "meta_object_id": "2025-268AC",
        "meta_epoch": "2025-12-13T02:23:31.434432",
        "meta_mean_motion": 15.50656869,
        "meta_eccentricity": 0.0001234,
        "meta_inclination": 43,
        "meta_ra_of_asc_node": 118.9697,
        "meta_arg_of_pericenter": 292.7477,
        "meta_mean_anomaly": 67.3252,
        "meta_ephemeris_type": 0,
        "meta_classification_type": "U",
        "meta_norad_cat_id": 66583,
        "meta_element_set_no": 999,
        "meta_rev_at_epoch": 468,
        "meta_bstar": 0.0025889773,
        "meta_mean_motion_dot": 0.00155015,
        "meta_mean_motion_ddot": 0,
        "tle_line1": "1 66583U 25268AC  25347.09966938  .00155015  00000+0  25890-2 0  9994",
        "tle_line2": "2 66583  43.0000 118.9697 0001234 292.7477  67.3252 15.50656869  4680"
      },
      "geometry": {
        "type": "Point",
        "coordinates": [
          72.98724994751215,
          -30.3187233136656
        ]
      }
    }
  ]
}